{"type": "FeatureCollection", "features": [{"type": "Feature", "properties": {"norad_id": 24946, "name": "IRIDIUM 33", "group": "iridium-33-debris", "lat": 71.85232523060301, "lon": -128.71702300889314, "alt_km": 763.9624757878319, "timestamp": "2025-12-26T14:28:48.087792+00:00", "meta": {"OBJECT_NAME": "IRIDIUM 33", "OBJECT_ID": "1997-051C", "EPOCH": "2025-12-26T03:56:18.994272", "MEAN_MOTION": 14.35046384, "ECCENTRICITY": 0.00086109, "INCLINATION": 86.3856, "RA_OF_ASC_NODE": 62.586, "ARG_OF_PERICENTER": 157.3074, "MEAN_ANOMALY": 202.8505, "EPHEMERIS_TYPE": 0, "CLASSIFICATION_TYPE": "U", "NORAD_CAT_ID": 24946, "ELEMENT_SET_NO": 999, "REV_AT_EPOCH": 48027, "BSTAR": 0.00010877031, "MEAN_MOTION_DOT": 3.3e-06, "MEAN_MOTION_DDOT": 0}, "tle": {"line1": "1 24946U 97051C   25360.16410873  .00000330  00000+0  10877-3 0  9994", "line2": "2 24946  86.3856  62.5860 0008610 157.3074 202.8505 14.35046384480273"}}, "geometry": {"type": "Point", "coordinates": [-128.71702300889314, 71.85232523060301]}}, {"type": "Feature", "properties": {"norad_id": 33773, "name": "IRIDIUM 33 DEB", "group": "iridium-33-debris", "lat": 64.74501369967464, "lon": -132.95620349329084, "alt_km": 732.0493883219497, "timestamp": "2025-12-26T14:28:48.087827+00:00", "meta": {"OBJECT_NAME": "IRIDIUM 33 DEB", "OBJECT_ID": "1997-051L", "EPOCH": "2025-12-26T03:57:58.913280", "MEAN_MOTION": 14.43284045, "ECCENTRICITY": 0.00133202, "INCLINATION": 86.3996, "RA_OF_ASC_NODE": 54.8996, "ARG_OF_PERICENTER": 107.9438, "MEAN_ANOMALY": 252.3216, "EPHEMERIS_TYPE": 0, "CLASSIFICATION_TYPE": "U", "NORAD_CAT_ID": 33773, "ELEMENT_SET_NO": 999, "REV_AT_EPOCH": 88541, "BSTAR": 0.00027811517, "MEAN_MOTION_DOT": 9.57e-06, "MEAN_MOTION_DDOT": 0}, "tle": {"line1": "1 33773U 97051L   25360.16526520  .00000957  00000+0  27812-3 0  9991", "line2": "2 33773  86.3996  54.8996 0013320 107.9438 252.3216 14.43284045885410"}}, "geometry": {"type": "Point", "coordinates": [-132.95620349329084, 64.74501369967464]}}, {"type": "Feature", "properties": {"norad_id": 33775, "name": "IRIDIUM 33 DEB", "group": "iridium-33-debris", "lat": 70.30809825197456, "lon": -146.605002426158, "alt_km": 735.9094504309423, "timestamp": "2025-12-26T14:28:48.087843+00:00", "meta": {"OBJECT_NAME": "IRIDIUM 33 DEB", "OBJECT_ID": "1997-051N", "EPOCH": "2025-12-26T04:15:04.667040", "MEAN_MOTION": 14.41496129, "ECCENTRICITY": 0.00153643, "INCLINATION": 86.3623, "RA_OF_ASC_NODE": 43.8159, "ARG_OF_PERICENTER": 114.8502, "MEAN_ANOMALY": 304.1975, "EPHEMERIS_TYPE": 0, "CLASSIFICATION_TYPE": "U", "NORAD_CAT_ID": 33775, "ELEMENT_SET_NO": 999, "REV_AT_EPOCH": 88334, "BSTAR": 0.00030508571, "MEAN_MOTION_DOT": 1.011e-05, "MEAN_MOTION_DDOT": 0}, "tle": {"line1": "1 33775U 97051N   25360.17713735  .00001011  00000+0  30509-3 0  9999", "line2": "2 33775  86.3623  43.8159 0015364 114.8502 304.1975 14.41496129883341"}}, "geometry": {"type": "Point", "coordinates": [-146.605002426158, 70.30809825197456]}}, {"type": "Feature", "properties": {"norad_id": 33776, "name": "IRIDIUM 33 DEB", "group": "iridium-33-debris", "lat": 2.04145919900757, "lon": -105.17474708326081, "alt_km": 757.3699291869989, "timestamp": "2025-12-26T14:28:48.087856+00:00", "meta": {"OBJECT_NAME": "IRIDIUM 33 DEB", "OBJECT_ID": "1997-051P", "EPOCH": "2025-12-26T05:25:03.153216", "MEAN_MOTION": 14.38257621, "ECCENTRICITY": 0.00158467, "INCLINATION": 86.4031, "RA_OF_ASC_NODE": 75.1123, "ARG_OF_PERICENTER": 147.7549, "MEAN_ANOMALY": 236.0984, "EPHEMERIS_TYPE": 0, "CLASSIFICATION_TYPE": "U", "NORAD_CAT_ID": 33776, "ELEMENT_SET_NO": 999, "REV_AT_EPOCH": 88276, "BSTAR": 0.00026545769, "MEAN_MOTION_DOT": 8.27e-06, "MEAN_MOTION_DDOT": 0}, "tle": {"line1": "1 33776U 97051P   25360.22573094  .00000827  00000+0  26546-3 0  9998", "line2": "2 33776  86.4031  75.1123 0015846 147.7549 236.0984 14.38257621882762"}}, "geometry": {"type": "Point", "coordinates": [-105.17474708326081, 2.04145919900757]}}, {"type": "Feature", "properties": {"norad_id": 33777, "name": "IRIDIUM 33 DEB", "group": "iridium-33-debris", "lat": 66.48361149051371, "lon": -159.20017027153833, "alt_km": 699.7718222593248, "timestamp": "2025-12-26T14:28:48.087869+00:00", "meta": {"OBJECT_NAME": "IRIDIUM 33 DEB", "OBJECT_ID": "1997-051Q", "EPOCH": "2025-12-26T04:03:46.425312", "MEAN_MOTION": 14.55704958, "ECCENTRICITY": 0.00064384, "INCLINATION": 86.3774, "RA_OF_ASC_NODE": 29.3599, "ARG_OF_PERICENTER": 193.2461, "MEAN_ANOMALY": 166.8579, "EPHEMERIS_TYPE": 0, "CLASSIFICATION_TYPE": "U", "NORAD_CAT_ID": 33777, "ELEMENT_SET_NO": 999, "REV_AT_EPOCH": 88729, "BSTAR": 0.00082325218, "MEAN_MOTION_DOT": 3.619e-05, "MEAN_MOTION_DDOT": 0}, "tle": {"line1": "1 33777U 97051Q   25360.16928733  .00003619  00000+0  82325-3 0  9995", "line2": "2 33777  86.3774  29.3599 0006438 193.2461 166.8579 14.55704958887292"}}, "geometry": {"type": "Point", "coordinates": [-159.20017027153833, 66.48361149051371]}}, {"type": "Feature", "properties": {"norad_id": 33850, "name": "IRIDIUM 33 DEB", "group": "iridium-33-debris", "lat": 55.62580395316139, "lon": -161.15032733778062, "alt_km": 736.6098994033919, "timestamp": "2025-12-26T14:28:48.087882+00:00", "meta": {"OBJECT_NAME": "IRIDIUM 33 DEB", "OBJECT_ID": "1997-051T", "EPOCH": "2025-12-26T02:30:00.751968", "MEAN_MOTION": 14.42179658, "ECCENTRICITY": 0.001333, "INCLINATION": 86.3408, "RA_OF_ASC_NODE": 24.4322, "ARG_OF_PERICENTER": 121.3871, "MEAN_ANOMALY": 292.8328, "EPHEMERIS_TYPE": 0, "CLASSIFICATION_TYPE": "U", "NORAD_CAT_ID": 33850, "ELEMENT_SET_NO": 999, "REV_AT_EPOCH": 88345, "BSTAR": 0.0004106762, "MEAN_MOTION_DOT": 1.372e-05, "MEAN_MOTION_DDOT": 0}, "tle": {"line1": "1 33850U 97051T   25360.10417537  .00001372  00000+0  41068-3 0  9999", "line2": "2 33850  86.3408  24.4322 0013330 121.3871 292.8328 14.42179658883459"}}, "geometry": {"type": "Point", "coordinates": [-161.15032733778062, 55.62580395316139]}}, {"type": "Feature", "properties": {"norad_id": 33853, "name": "IRIDIUM 33 DEB", "group": "iridium-33-debris", "lat": 20.036524352712792, "lon": 162.26949069202996, "alt_km": 769.5547779713006, "timestamp": "2025-12-26T14:28:48.087894+00:00", "meta": {"OBJECT_NAME": "IRIDIUM 33 DEB", "OBJECT_ID": "1997-051W", "EPOCH": "2025-12-26T05:11:17.625408", "MEAN_MOTION": 13.99125528, "ECCENTRICITY": 0.02077866, "INCLINATION": 86.0002, "RA_OF_ASC_NODE": 343.9013, "ARG_OF_PERICENTER": 194.2596, "MEAN_ANOMALY": 177.9632, "EPHEMERIS_TYPE": 0, "CLASSIFICATION_TYPE": "U", "NORAD_CAT_ID": 33853, "ELEMENT_SET_NO": 999, "REV_AT_EPOCH": 85534, "BSTAR": 0.0011694356, "MEAN_MOTION_DOT": 2.055e-05, "MEAN_MOTION_DDOT": 0}, "tle": {"line1": "1 33853U 97051W   25360.21617622  .00002055  00000+0  11694-2 0  9991", "line2": "2 33853  86.0002 343.9013 0207786 194.2596 177.9632 13.99125528855344"}}, "geometry": {"type": "Point", "coordinates": [162.26949069202996, 20.036524352712792]}}, {"type": "Feature", "properties": {"norad_id": 33860, "name": "IRIDIUM 33 DEB", "group": "iridium-33-debris", "lat": -57.94989084354268, "lon": -153.10103373357705, "alt_km": 674.3424749280894, "timestamp": "2025-12-26T14:28:48.087906+00:00", "meta": {"OBJECT_NAME": "IRIDIUM 33 DEB", "OBJECT_ID": "1997-051AD", "EPOCH": "2025-12-26T02:11:16.037376", "MEAN_MOTION": 14.6752687, "ECCENTRICITY": 0.00060008, "INCLINATION": 86.3825, "RA_OF_ASC_NODE": 21.3263, "ARG_OF_PERICENTER": 304.5044, "MEAN_ANOMALY": 109.5001, "EPHEMERIS_TYPE": 0, "CLASSIFICATION_TYPE": "U", "NORAD_CAT_ID": 33860, "ELEMENT_SET_NO": 999, "REV_AT_EPOCH": 88918, "BSTAR": 0.0011340183, "MEAN_MOTION_DOT": 6.452e-05, "MEAN_MOTION_DDOT": 0}, "tle": {"line1": "1 33860U 97051AD  25360.09115784  .00006452  00000+0  11340-2 0  9990", "line2": "2 33860  86.3825  21.3263 0006000 304.5044 109.5001 14.67526870889183"}}, "geometry": {"type": "Point", "coordinates": [-153.10103373357705, -57.94989084354268]}}, {"type": "Feature", "properties": {"norad_id": 33862, "name": "IRIDIUM 33 DEB", "group": "iridium-33-debris", "lat": 19.580855935944488, "lon": 32.695498119430646, "alt_km": 625.7285643036194, "timestamp": "2025-12-26T14:28:48.087917+00:00", "meta": {"OBJECT_NAME": "IRIDIUM 33 DEB", "OBJECT_ID": "1997-051AF", "EPOCH": "2025-12-26T03:12:38.981664", "MEAN_MOTION": 14.69690287, "ECCENTRICITY": 0.0051963, "INCLINATION": 86.4084, "RA_OF_ASC_NODE": 31.6224, "ARG_OF_PERICENTER": 24.1481, "MEAN_ANOMALY": 32.8938, "EPHEMERIS_TYPE": 0, "CLASSIFICATION_TYPE": "U", "NORAD_CAT_ID": 33862, "ELEMENT_SET_NO": 999, "REV_AT_EPOCH": 89020, "BSTAR": 0.0014361789, "MEAN_MOTION_DOT": 8.756e-05, "MEAN_MOTION_DDOT": 0}, "tle": {"line1": "1 33862U 97051AF  25360.13378451  .00008756  00000+0  14362-2 0  9995", "line2": "2 33862  86.4084  31.6224 0051963  24.1481  32.8938 14.69690287890200"}}, "geometry": {"type": "Point", "coordinates": [32.695498119430646, 19.580855935944488]}}, {"type": "Feature", "properties": {"norad_id": 33866, "name": "IRIDIUM 33 DEB", "group": "iridium-33-debris", "lat": 36.51885611802228, "lon": 89.91709473145124, "alt_km": 790.6815584442893, "timestamp": "2025-12-26T14:28:48.087928+00:00", "meta": {"OBJECT_NAME": "IRIDIUM 33 DEB", "OBJECT_ID": "1997-051AK", "EPOCH": "2025-12-26T06:00:43.674336", "MEAN_MOTION": 14.25315918, "ECCENTRICITY": 0.01152742, "INCLINATION": 86.2997, "RA_OF_ASC_NODE": 87.3198, "ARG_OF_PERICENTER": 118.5793, "MEAN_ANOMALY": 270.1399, "EPHEMERIS_TYPE": 0, "CLASSIFICATION_TYPE": "U", "NORAD_CAT_ID": 33866, "ELEMENT_SET_NO": 999, "REV_AT_EPOCH": 87003, "BSTAR": 0.0006025218, "MEAN_MOTION_DOT": 1.54e-05, "MEAN_MOTION_DDOT": 0}, "tle": {"line1": "1 33866U 97051AK  25360.25050549  .00001540  00000+0  60252-3 0  9991", "line2": "2 33866  86.2997  87.3198 0115274 118.5793 270.1399 14.25315918870037"}}, "geometry": {"type": "Point", "coordinates": [89.91709473145124, 36.51885611802228]}}]}